{
  "type": "FeatureCollection",
  "features": [
    {
      "type": "Feature",
      "properties": {
        "norad_id": 58647,
        "name": "TIANMU-1 13",
        "group": "weather",
        "lat": 49.24287439914298,
        "lon": 6.330790897658124,
        "alt_km": 491.8560876548863,
        "timestamp": "2025-12-21T11:31:42.483662+00:00",
        "meta_object_name": "TIANMU-1 13",
        "meta_object_id": "2023-205C",
        "meta_epoch": "2025-12-21T03:26:04.864704",
        "meta_mean_motion": 15.2462078,
        "meta_eccentricity": 0.0006326,
        "meta_inclination": 97.361,
        "meta_ra_of_asc_node": 14.626,
        "meta_arg_of_pericenter": 229.7197,
        "meta_mean_anomaly": 130.3489,
        "meta_ephemeris_type": 0,
        "meta_classification_type": "U",
        "meta_norad_cat_id": 58647,
        "meta_element_set_no": 999,
        "meta_rev_at_epoch": 11035,
        "meta_bstar": 0.00018498,
        "meta_mean_motion_dot": 4.495e-05,
        "meta_mean_motion_ddot": 0,
        "tle_line1": "1 58647U 23205C   25355.14311186  .00004495  00000+0  18498-3 0  9991",
        "tle_line2": "2 58647  97.3610  14.6260 0006326 229.7197 130.3489 15.24620780110354"
      },
      "geometry": {
        "type": "Point",
        "coordinates": [
          6.330790897658124,
          49.24287439914298
        ]
      }
    },
    {
      "type": "Feature",
      "properties": {
        "norad_id": 58648,
        "name": "TIANMU-1 14",
        "group": "weather",
        "lat": 39.210082189567316,
        "lon": -159.65333080324288,
        "alt_km": 489.4297099987007,
        "timestamp": "2025-12-21T11:31:42.483672+00:00",
        "meta_object_name": "TIANMU-1 14",
        "meta_object_id": "2023-205D",
        "meta_epoch": "2025-12-21T04:36:49.205952",
        "meta_mean_motion": 15.24604481,
        "meta_eccentricity": 0.0007076,
        "meta_inclination": 97.3541,
        "meta_ra_of_asc_node": 14.0152,
        "meta_arg_of_pericenter": 235.7773,
        "meta_mean_anomaly": 124.2795,
        "meta_ephemeris_type": 0,
        "meta_classification_type": "U",
        "meta_norad_cat_id": 58648,
        "meta_element_set_no": 999,
        "meta_rev_at_epoch": 11036,
        "meta_bstar": 0.00018138,
        "meta_mean_motion_dot": 4.404e-05,
        "meta_mean_motion_ddot": 0,
        "tle_line1": "1 58648U 23205D   25355.19223618  .00004404  00000+0  18138-3 0  9990",
        "tle_line2": "2 58648  97.3541  14.0152 0007076 235.7773 124.2795 15.24604481110365"
      },
      "geometry": {
        "type": "Point",
        "coordinates": [
          -159.65333080324288,
          39.210082189567316
        ]
      }
    },
    {
      "type": "Feature",
      "properties": {
        "norad_id": 58660,
        "name": "TIANMU-1 19",
        "group": "weather",
        "lat": 38.44713705649786,
        "lon": -67.54417449999919,
        "alt_km": 478.1434228347334,
        "timestamp": "2025-12-21T11:31:42.483682+00:00",
        "meta_object_name": "TIANMU-1 19",
        "meta_object_id": "2023-208A",
        "meta_epoch": "2025-12-21T04:37:33.441024",
        "meta_mean_motion": 15.27990686,
        "meta_eccentricity": 0.000452,
        "meta_inclination": 97.4395,
        "meta_ra_of_asc_node": 106.214,
        "meta_arg_of_pericenter": 215.7413,
        "meta_mean_anomaly": 144.3524,
        "meta_ephemeris_type": 0,
        "meta_classification_type": "U",
        "meta_norad_cat_id": 58660,
        "meta_element_set_no": 999,
        "meta_rev_at_epoch": 11011,
        "meta_bstar": 0.00024992,
        "meta_mean_motion_dot": 6.751e-05,
        "meta_mean_motion_ddot": 0,
        "tle_line1": "1 58660U 23208A   25355.19274816  .00006751  00000+0  24992-3 0  9995",
        "tle_line2": "2 58660  97.4395 106.2140 0004520 215.7413 144.3524 15.27990686110112"
      },
      "geometry": {
        "type": "Point",
        "coordinates": [
          -67.54417449999919,
          38.44713705649786
        ]
      }
    },
    {
      "type": "Feature",
      "properties": {
        "norad_id": 58661,
        "name": "TIANMU-1 20",
        "group": "weather",
        "lat": -71.33189879380171,
        "lon": -95.77500572769014,
        "alt_km": 481.4024199163887,
        "timestamp": "2025-12-21T11:31:42.483692+00:00",
        "meta_object_name": "TIANMU-1 20",
        "meta_object_id": "2023-208B",
        "meta_epoch": "2025-12-21T04:08:39.133824",
        "meta_mean_motion": 15.29180853,
        "meta_eccentricity": 0.0006601,
        "meta_inclination": 97.4332,
        "meta_ra_of_asc_node": 106.6499,
        "meta_arg_of_pericenter": 230.6184,
        "meta_mean_anomaly": 129.4472,
        "meta_ephemeris_type": 0,
        "meta_classification_type": "U",
        "meta_norad_cat_id": 58661,
        "meta_element_set_no": 999,
        "meta_rev_at_epoch": 11018,
        "meta_bstar": 0.00023714,
        "meta_mean_motion_dot": 6.643e-05,
        "meta_mean_motion_ddot": 0,
        "tle_line1": "1 58661U 23208B   25355.17267516  .00006643  00000+0  23714-3 0  9994",
        "tle_line2": "2 58661  97.4332 106.6499 0006601 230.6184 129.4472 15.29180853110180"
      },
      "geometry": {
        "type": "Point",
        "coordinates": [
          -95.77500572769014,
          -71.33189879380171
        ]
      }
    },
    {
      "type": "Feature",
      "properties": {
        "norad_id": 58662,
        "name": "TIANMU-1 21",
        "group": "weather",
        "lat": -23.059092797590655,
        "lon": 112.09321319236638,
        "alt_km": 477.9009253058166,
        "timestamp": "2025-12-21T11:31:42.483702+00:00",
        "meta_object_name": "TIANMU-1 21",
        "meta_object_id": "2023-208C",
        "meta_epoch": "2025-12-21T05:21:30.160800",
        "meta_mean_motion": 15.31717351,
        "meta_eccentricity": 0.0006241,
        "meta_inclination": 97.4382,
        "meta_ra_of_asc_node": 108.647,
        "meta_arg_of_pericenter": 224.5757,
        "meta_mean_anomaly": 135.4983,
        "meta_ephemeris_type": 0,
        "meta_classification_type": "U",
        "meta_norad_cat_id": 58662,
        "meta_element_set_no": 999,
        "meta_rev_at_epoch": 11029,
        "meta_bstar": 0.00025971,
        "meta_mean_motion_dot": 7.88e-05,
        "meta_mean_motion_ddot": 0,
        "tle_line1": "1 58662U 23208C   25355.22326575  .00007880  00000+0  25971-3 0  9993",
        "tle_line2": "2 58662  97.4382 108.6470 0006241 224.5757 135.4983 15.31717351110293"
      },
      "geometry": {
        "type": "Point",
        "coordinates": [
          112.09321319236638,
          -23.059092797590655
        ]
      }
    },
    {
      "type": "Feature",
      "properties": {
        "norad_id": 58663,
        "name": "TIANMU-1 22",
        "group": "weather",
        "lat": 45.023446817213895,
        "lon": -65.93004305237287,
        "alt_km": 479.3231172118458,
        "timestamp": "2025-12-21T11:31:42.483712+00:00",
        "meta_object_name": "TIANMU-1 22",
        "meta_object_id": "2023-208D",
        "meta_epoch": "2025-12-21T04:39:14.440032",
        "meta_mean_motion": 15.27735,
        "meta_eccentricity": 0.0002774,
        "meta_inclination": 97.4389,
        "meta_ra_of_asc_node": 106.2703,
        "meta_arg_of_pericenter": 242.0477,
        "meta_mean_anomaly": 118.0481,
        "meta_ephemeris_type": 0,
        "meta_classification_type": "U",
        "meta_norad_cat_id": 58663,
        "meta_element_set_no": 999,
        "meta_rev_at_epoch": 11012,
        "meta_bstar": 0.0002337,
        "meta_mean_motion_dot": 6.258e-05,
        "meta_mean_motion_ddot": 0,
        "tle_line1": "1 58663U 23208D   25355.19391713  .00006258  00000+0  23370-3 0  9995",
        "tle_line2": "2 58663  97.4389 106.2703 0002774 242.0477 118.0481 15.27735000110123"
      },
      "geometry": {
        "type": "Point",
        "coordinates": [
          -65.93004305237287,
          45.023446817213895
        ]
      }
    },
    {
      "type": "Feature",
      "properties": {
        "norad_id": 58700,
        "name": "TIANMU-1 15",
        "group": "weather",
        "lat": 16.606887256744344,
        "lon": -0.8427511526591354,
        "alt_km": 492.95091756109287,
        "timestamp": "2025-12-21T11:31:42.483726+00:00",
        "meta_object_name": "TIANMU-1 15",
        "meta_object_id": "2024-004A",
        "meta_epoch": "2025-12-21T04:30:48.414240",
        "meta_mean_motion": 15.24508356,
        "meta_eccentricity": 0.0005962,
        "meta_inclination": 97.4622,
        "meta_ra_of_asc_node": 176.6258,
        "meta_arg_of_pericenter": 254.2218,
        "meta_mean_anomaly": 105.8363,
        "meta_ephemeris_type": 0,
        "meta_classification_type": "U",
        "meta_norad_cat_id": 58700,
        "meta_element_set_no": 999,
        "meta_rev_at_epoch": 10863,
        "meta_bstar": 0.00020192,
        "meta_mean_motion_dot": 4.894e-05,
        "meta_mean_motion_ddot": 0,
        "tle_line1": "1 58700U 24004A   25355.18806035  .00004894  00000+0  20192-3 0  9992",
        "tle_line2": "2 58700  97.4622 176.6258 0005962 254.2218 105.8363 15.24508356108636"
      },
      "geometry": {
        "type": "Point",
        "coordinates": [
          -0.8427511526591354,
          16.606887256744344
        ]
      }
    }
  ]
}